*******************************************************************************
Ephemeris / WWW_USER Mon Mar 24 07:55:08 2025 Pasadena, USA      / Horizons    
*******************************************************************************
Target body name: (2018 SL3)                      {source: JPL#9}
Center body name: Earth (399)                     {source: DE441}
Center-site name: Mauna Kea
*******************************************************************************
Start time      : A.D. 2018-Oct-27 04:00:00.0000 UT      
Stop  time      : A.D. 2018-Oct-27 16:11:00.0000 UT      
Step-size       : 1 minutes
*******************************************************************************
Target pole/equ : undefined
Target radii    : undefined                                                    
Center geodetic : 204.5278, 19.8260847, 4.21024   {E-lon(deg),Lat(deg),Alt(km)}
Center cylindric: 204.5278, 6006.35451, 2151.0229 {E-lon(deg),Dxy(km),Dz(km)}
Center pole/equ : ITRF93                          {East-longitude positive}
Center radii    : 6378.137, 6378.137, 6356.752 km {Equator_a, b, pole_c}       
Target primary  : Sun
Vis. interferer : MOON (R_eq= 1737.400) km        {source: DE441}
Rel. light bend : Sun                             {source: DE441}
Rel. lght bnd GM: 1.3271E+11 km^3/s^2                                          
Small-body perts: Yes                             {source: SB441-N16}
Atmos refraction: NO (AIRLESS)
RA format       : HMS
Time format     : CAL 
Calendar mode   : Mixed Julian/Gregorian
RTS-only print  : NO       
EOP file        : eop.250321.p250617                                           
EOP coverage    : DATA-BASED 1962-JAN-20 TO 2025-MAR-21. PREDICTS-> 2025-JUN-16
Units conversion: 1 au= 149597870.700 km, c= 299792.458 km/s, 1 day= 86400.0 s 
Table cut-offs 1: Elevation (-90.0deg=NO ),Airmass (>38.000=NO), Daylight (YES)
Table cut-offs 2: Solar elongation (  0.0,180.0=NO ),Local Hour Angle( 0.0=NO )
Table cut-offs 3: RA/DEC angular rate (     0.0=NO )                           
*******************************************************************************
Initial IAU76/J2000 heliocentric ecliptic osculating elements (au, days, deg.):
  EPOCH=  2458395.5 ! 2018-Oct-04.00 (TDB)         Residual RMS= .22865        
   EC= .523832704749462    QR= .7523817427125933   TP= 2458455.4342692108      
   OM= 5.37828463666876    W=  89.37669799750542   IN= 4.07069530013935        
  Equivalent ICRF heliocentric cartesian coordinates (au, au/d):
   X= 1.077301312774806E+00  Y= 1.718701187822678E-01  Z= 8.135917115484240E-02
  VX=-1.117713770282307E-02 VY= 1.338322199759621E-02 VZ= 7.048365308861806E-03
Asteroid physical parameters (km, seconds, rotational period in hours):        
   GM= n.a.                RAD= n.a.               ROTPER= n.a.                
   H= 24.5                 G= .150                 B-V= n.a.                   
                           ALBEDO= n.a.            STYP= n.a.                  
*******************************************************************************
 Date__(UT)__HR:MN     R.A._________(ICRF)_________DEC
******************************************************
$$SOE
 2018-Oct-27 04:00 C   13 45 48.915355 +10 12 05.66915
 2018-Oct-27 04:01 C   13 45 48.748582 +10 12 03.74952
 2018-Oct-27 04:02 C   13 45 48.581944 +10 12 01.83009
 2018-Oct-27 04:03 C   13 45 48.415442 +10 11 59.91086
 2018-Oct-27 04:04 C   13 45 48.249075 +10 11 57.99184
 2018-Oct-27 04:05 C   13 45 48.082844 +10 11 56.07302
 2018-Oct-27 04:06 C   13 45 47.916749 +10 11 54.15442
 2018-Oct-27 04:07 C   13 45 47.750788 +10 11 52.23602
 2018-Oct-27 04:08 C   13 45 47.584963 +10 11 50.31783
 2018-Oct-27 04:09 C   13 45 47.419273 +10 11 48.39985
 2018-Oct-27 04:10 C   13 45 47.253719 +10 11 46.48208
 2018-Oct-27 04:11 C   13 45 47.088299 +10 11 44.56452
 2018-Oct-27 04:12 C   13 45 46.923014 +10 11 42.64719
 2018-Oct-27 04:13 Cs  13 45 46.757864 +10 11 40.73006
 2018-Oct-27 04:14 N   13 45 46.592849 +10 11 38.81316
 2018-Oct-27 04:15 N   13 45 46.427969 +10 11 36.89647
 2018-Oct-27 04:16 N   13 45 46.263224 +10 11 34.98000
 2018-Oct-27 04:17 N   13 45 46.098613 +10 11 33.06376
 2018-Oct-27 04:18 N   13 45 45.934136 +10 11 31.14773
 2018-Oct-27 04:19 N   13 45 45.769794 +10 11 29.23193
 2018-Oct-27 04:20 N   13 45 45.605586 +10 11 27.31636
 2018-Oct-27 04:21 N   13 45 45.441512 +10 11 25.40101
 2018-Oct-27 04:22 N   13 45 45.277572 +10 11 23.48589
 2018-Oct-27 04:23 N   13 45 45.113767 +10 11 21.57100
 2018-Oct-27 04:24 N   13 45 44.950095 +10 11 19.65633
 2018-Oct-27 04:25 N   13 45 44.786557 +10 11 17.74190
 2018-Oct-27 04:26 N   13 45 44.623152 +10 11 15.82770
 2018-Oct-27 04:27 N   13 45 44.459881 +10 11 13.91374
 2018-Oct-27 04:28 N   13 45 44.296744 +10 11 12.00000
 2018-Oct-27 04:29 N   13 45 44.133740 +10 11 10.08651
 2018-Oct-27 04:30 N   13 45 43.970869 +10 11 08.17325
 2018-Oct-27 04:31 N   13 45 43.808132 +10 11 06.26023
 2018-Oct-27 04:32 N   13 45 43.645527 +10 11 04.34745
 2018-Oct-27 04:33 N   13 45 43.483055 +10 11 02.43492
 2018-Oct-27 04:34 N   13 45 43.320716 +10 11 00.52262
 2018-Oct-27 04:35 N   13 45 43.158509 +10 10 58.61057
 2018-Oct-27 04:36 N   13 45 42.996435 +10 10 56.69876
 2018-Oct-27 04:37 N   13 45 42.834493 +10 10 54.78720
 2018-Oct-27 04:38 N   13 45 42.672684 +10 10 52.87588
 2018-Oct-27 04:39 N   13 45 42.511006 +10 10 50.96482
 2018-Oct-27 04:40 A   13 45 42.349461 +10 10 49.05400
 2018-Oct-27 04:41 A   13 45 42.188047 +10 10 47.14343
 2018-Oct-27 04:42 A   13 45 42.026765 +10 10 45.23312
 2018-Oct-27 04:43 A   13 45 41.865614 +10 10 43.32306
 2018-Oct-27 04:44 A   13 45 41.704595 +10 10 41.41325
 2018-Oct-27 04:45 A   13 45 41.543707 +10 10 39.50370
 2018-Oct-27 04:46 A   13 45 41.382950 +10 10 37.59441
 2018-Oct-27 04:47 A   13 45 41.222324 +10 10 35.68537
 2018-Oct-27 04:48 A   13 45 41.061829 +10 10 33.77660
 2018-Oct-27 04:49 A   13 45 40.901465 +10 10 31.86808
 2018-Oct-27 04:50 A   13 45 40.741230 +10 10 29.95983
 2018-Oct-27 04:51 A   13 45 40.581126 +10 10 28.05184
 2018-Oct-27 04:52 A   13 45 40.421153 +10 10 26.14411
 2018-Oct-27 04:53 A   13 45 40.261309 +10 10 24.23665
 2018-Oct-27 04:54 A   13 45 40.101595 +10 10 22.32945
 2018-Oct-27 04:55 A   13 45 39.942011 +10 10 20.42253
 2018-Oct-27 04:56 A   13 45 39.782556 +10 10 18.51587
 2018-Oct-27 04:57 A   13 45 39.623230 +10 10 16.60948
 2018-Oct-27 04:58 A   13 45 39.464033 +10 10 14.70336
 2018-Oct-27 04:59 A   13 45 39.304966 +10 10 12.79752
 2018-Oct-27 05:00 A   13 45 39.146027 +10 10 10.89195
 2018-Oct-27 05:01 A   13 45 38.987217 +10 10 08.98665
 2018-Oct-27 05:02 A   13 45 38.828535 +10 10 07.08163
 2018-Oct-27 05:03 A   13 45 38.669981 +10 10 05.17689
 2018-Oct-27 05:04 A   13 45 38.511555 +10 10 03.27242
 2018-Oct-27 05:05     13 45 38.353257 +10 10 01.36824
 2018-Oct-27 05:06     13 45 38.195087 +10 09 59.46433
 2018-Oct-27 05:07     13 45 38.037044 +10 09 57.56071
 2018-Oct-27 05:08     13 45 37.879129 +10 09 55.65737
 2018-Oct-27 05:09     13 45 37.721340 +10 09 53.75431
 2018-Oct-27 05:10     13 45 37.563678 +10 09 51.85154
 2018-Oct-27 05:11     13 45 37.406143 +10 09 49.94906
 2018-Oct-27 05:12     13 45 37.248735 +10 09 48.04686
 2018-Oct-27 05:13     13 45 37.091452 +10 09 46.14495
 2018-Oct-27 05:14     13 45 36.934296 +10 09 44.24334
 2018-Oct-27 05:15     13 45 36.777265 +10 09 42.34201
 2018-Oct-27 05:16     13 45 36.620360 +10 09 40.44097
 2018-Oct-27 05:17     13 45 36.463581 +10 09 38.54023
 2018-Oct-27 05:18     13 45 36.306926 +10 09 36.63979
 2018-Oct-27 05:19     13 45 36.150397 +10 09 34.73963
 2018-Oct-27 05:20     13 45 35.993992 +10 09 32.83978
 2018-Oct-27 05:21     13 45 35.837712 +10 09 30.94022
 2018-Oct-27 05:22     13 45 35.681556 +10 09 29.04096
 2018-Oct-27 05:23     13 45 35.525524 +10 09 27.14201
 2018-Oct-27 05:24     13 45 35.369616 +10 09 25.24335
 2018-Oct-27 05:25     13 45 35.213832 +10 09 23.34499
 2018-Oct-27 05:26     13 45 35.058171 +10 09 21.44694
 2018-Oct-27 05:27     13 45 34.902633 +10 09 19.54920
 2018-Oct-27 05:28     13 45 34.747218 +10 09 17.65176
 2018-Oct-27 05:29     13 45 34.591925 +10 09 15.75462
 2018-Oct-27 05:30     13 45 34.436756 +10 09 13.85779
 2018-Oct-27 05:31     13 45 34.281708 +10 09 11.96128
 2018-Oct-27 05:32     13 45 34.126782 +10 09 10.06507
 2018-Oct-27 05:33     13 45 33.971978 +10 09 08.16917
 2018-Oct-27 05:34     13 45 33.817295 +10 09 06.27359
 2018-Oct-27 05:35     13 45 33.662734 +10 09 04.37832
 2018-Oct-27 05:36     13 45 33.508294 +10 09 02.48336
 2018-Oct-27 05:37     13 45 33.353974 +10 09 00.58872
 2018-Oct-27 05:38     13 45 33.199775 +10 08 58.69440
 2018-Oct-27 05:39     13 45 33.045695 +10 08 56.80039
 2018-Oct-27 05:40     13 45 32.891736 +10 08 54.90670
 2018-Oct-27 05:41     13 45 32.737897 +10 08 53.01333
 2018-Oct-27 05:42     13 45 32.584177 +10 08 51.12028
 2018-Oct-27 05:43     13 45 32.430576 +10 08 49.22756
 2018-Oct-27 05:44  m  13 45 32.277094 +10 08 47.33515
 2018-Oct-27 05:45  m  13 45 32.123730 +10 08 45.44307
 2018-Oct-27 05:46  m  13 45 31.970485 +10 08 43.55132
 2018-Oct-27 05:47  m  13 45 31.817358 +10 08 41.65989
 2018-Oct-27 05:48  m  13 45 31.664349 +10 08 39.76879
 2018-Oct-27 05:49  m  13 45 31.511457 +10 08 37.87802
 2018-Oct-27 05:50  m  13 45 31.358683 +10 08 35.98758
 2018-Oct-27 05:51  m  13 45 31.206025 +10 08 34.09746
 2018-Oct-27 05:52  m  13 45 31.053484 +10 08 32.20768
 2018-Oct-27 05:53  m  13 45 30.901060 +10 08 30.31823
 2018-Oct-27 05:54  m  13 45 30.748752 +10 08 28.42911
 2018-Oct-27 05:55  m  13 45 30.596559 +10 08 26.54033
 2018-Oct-27 05:56  m  13 45 30.444482 +10 08 24.65189
 2018-Oct-27 05:57  m  13 45 30.292521 +10 08 22.76377
 2018-Oct-27 05:58  m  13 45 30.140674 +10 08 20.87600
 2018-Oct-27 05:59  m  13 45 29.988942 +10 08 18.98857
 2018-Oct-27 06:00  m  13 45 29.837324 +10 08 17.10147
 2018-Oct-27 06:01  m  13 45 29.685821 +10 08 15.21472
 2018-Oct-27 06:02  m  13 45 29.534431 +10 08 13.32830
